{
  "norad_id": 67063,
  "name": "HULIANWANG DIGUI-123",
  "history": [
    {
      "epoch": "2026-03-28T21:45:37.840608Z",
      "apogee_km": 1149.3868488266098,
      "perigee_km": 1149.2441283274275,
      "latitude_deg": 2.8013231322038006e-06,
      "longitude_deg": 160.69782476644326,
      "height_km": 1149.8630853434654,
      "semi_major_axis_km": 7527.452488577019,
      "eccentricity": 9.48e-06,
      "inclination_deg": 50.0043,
      "raan_deg": 313.4259,
      "arg_perigee_deg": 125.3685,
      "mean_anomaly_deg": 234.7196,
      "mean_motion_rev_day": 13.29323638
    },
    {
      "epoch": "2026-03-29T03:10:24.391200Z",
      "apogee_km": 1149.3883123352707,
      "perigee_km": 1149.2422797607287,
      "latitude_deg": -1.956263261608313e-05,
      "longitude_deg": 78.47264416453109,
      "height_km": 1149.8630566561035,
      "semi_major_axis_km": 7527.452296048,
      "eccentricity": 9.7e-06,
      "inclination_deg": 50.0043,
      "raan_deg": 312.617,
      "arg_perigee_deg": 124.6073,
      "mean_anomaly_deg": 235.4808,
      "mean_motion_rev_day": 13.29323689
    },
    {
      "epoch": "2026-03-30T04:26:01.618080Z",
      "apogee_km": 1149.393876824316,
      "perigee_km": 1149.2353486933525,
      "latitude_deg": 1.6087590987102013e-05,
      "longitude_deg": 54.755257242182,
      "height_km": 1149.8681536985753,
      "semi_major_axis_km": 7527.451612758834,
      "eccentricity": 1.053e-05,
      "inclination_deg": 50.0042,
      "raan_deg": 308.8421,
      "arg_perigee_deg": 126.6099,
      "mean_anomaly_deg": 233.4783,
      "mean_motion_rev_day": 13.2932387
    }
  ]
}